ONEWEB-0647             
1 56079U 23043AK  24078.92291248  .00000048  00000+0  93379-4 0  9993
2 56079  87.8971  62.4725 0002103  77.9302 282.2063 13.15547977 48575
ONEWEB-0651             
1 56080U 23043AL  24078.99420950  .00000035  00000+0  59375-4 0  9990
2 56080  87.8976  62.4323 0002362  83.6777 276.4623 13.15547606 48580
ONEWEB-0718             
1 56081U 23043AM  24078.98945010  .00000021  00000+0  22387-4 0  9997
2 56081  87.8974  62.4205 0001762 106.3577 253.7747 13.15549904 49503
GSLV R/B                
1 56082U 23043AN  24078.85413085  .00100985  00000+0  93202-3 0  9999
2 56082  87.4088  13.8314 0018797  69.0453 291.2826 15.67043404 55506
ONEWEB-0561             
1 56710U 23068A   24079.02785795  .00000113  00000+0  20025-3 0  9999
2 56710  88.2859  76.8091 0001848  66.0824 294.0511 13.34329464 41937
ONEWEB-0668             
1 56711U 23068B   24078.91746528  .00000256  00000+0  63658-3 0  9995
2 56711  87.9106  32.0342 0001916 102.5951 257.5394 13.16595121 43845
ONEWEB-0676             
1 56712U 23068C   24078.89211373  .00000160  00000+0  38526-3 0  9998
2 56712  87.9117  32.0369 0002299  73.4988 286.6395 13.16595048 43761
ONEWEB-0677             
1 56713U 23068D   24078.96834886  .00000045  00000+0  63369-4 0  9993
2 56713  88.3197  75.2116 0002559  83.3103 276.8329 13.34778745 42115
